STARLINK-1552
1 46076U 20055BB  26092.83335647  .01500790  00000+0  79701-1 0  9999
2 46076  53.0749 348.1859 0002121 102.9027 119.9143 15.11538445  5660
